OBJECT_NAME,OBJECT_ID,EPOCH,MEAN_MOTION,ECCENTRICITY,INCLINATION,RA_OF_ASC_NODE,ARG_OF_PERICENTER,MEAN_ANOMALY,EPHEMERIS_TYPE,CLASSIFICATION_TYPE,NORAD_CAT_ID,ELEMENT_SET_NO,REV_AT_EPOCH,BSTAR,MEAN_MOTION_DOT,MEAN_MOTION_DDOT
TYVAK-0173,2021-059P,2026-07-06T17:05:03.944544,14.81953539,.00079424,96.0078,259.2153,334.3133,25.7689,0,U,48892,999,27113,.19429206E-3,.1508E-4,0
MANDRAKE 2 ABLE,2021-059AE,2026-07-06T23:44:30.155424,15.55818938,.0003509,97.7037,19.2949,274.1422,85.9430,0,U,48907,999,28020,.24258378E-3,.16663E-3,0
MANDRAKE 2 BAKER,2021-059AF,2026-07-07T12:03:47.028096,15.60658567,.00022128,97.7002,22.8649,257.3907,102.7102,0,U,48908,999,28046,.25342392E-3,.20894E-3,0
PACE-1,2021-059AG,2026-07-06T01:44:06.923904,15.83608652,.0002866,97.6734,27.3937,201.5313,158.5836,0,U,48909,999,28078,.57119E-3,.126204E-2,0
YAM-3,2021-059AN,2026-07-06T18:33:19.958688,15.49009629,.00037399,97.6998,16.0140,286.3013,73.7826,0,U,48915,999,28002,.18699957E-3,.10023E-3,0
FARADAY_PHOENIX,2021-059AX,2026-07-06T23:01:52.171968,15.84594264,.0005244,97.6781,28.2753,222.1854,137.9012,0,U,48924,999,28078,.6413851E-3,.148959E-2,0
DEMO8 (TENZING),2021-059CA,2026-07-06T23:48:57.613536,15.55788133,.0005334,97.7022,22.9295,268.1981,91.8662,0,U,48951,999,28038,.22487485E-3,.15424E-3,0
FENGYUN 3E,2021-062A,2026-07-07T13:35:56.620320,14.19906459,.00025388,98.7500,191.7475,51.9379,308.2026,0,U,49008,999,25947,.12944011E-3,.231E-5,0
ISS (NAUKA),2021-066A,2026-07-07T12:12:01.987776,15.48933372,.00066874,51.6304,199.5144,267.6545,92.3678,0,U,49044,999,60966,.11369272E-3,.5806E-4,0
STARLINK-3100,2021-082Q,2026-07-07T09:38:58.848864,14.98327620,.00031207,70.0001,352.6093,269.5207,90.5594,0,U,49144,999,26391,.33242341E-4,.304E-5,0
CUTE,2021-088D,2026-07-07T05:31:17.825952,16.04923388,.00014696,97.4041,289.5988,300.4812,59.6324,0,U,49263,999,26575,.75030128E-3,.505644E-2,.12214957E-3
2021-091B,2021-091B,2026-07-07T14:50:21.482016,15.18657244,.00125947,97.4479,15.8831,336.7709,23.2955,0,U,49316,999,26208,.10403417E-3,.2091E-4,0
SDGSAT 1,2021-100A,2026-07-07T15:35:16.346400,15.19216569,.0008992,97.2621,234.8168,189.3334,170.7736,0,U,49387,999,25902,.1291236E-3,.2655E-4,0
TEIKYOSAT-4 (OORURI),2021-102B,2026-07-07T03:20:45.524256,15.09581551,.00109388,97.3664,216.8471,217.3603,142.6867,0,U,49396,999,25573,.86469251E-4,.1329E-4,0
Z-SAT,2021-102E,2026-07-07T15:04:30.927936,15.18427149,.00168791,97.3318,223.3309,170.0587,190.0985,0,U,49399,999,25654,.19545994E-3,.3971E-4,0
HIBARI,2021-102F,2026-07-06T16:00:49.718304,15.32149897,.0013126,97.3226,233.3519,127.6462,232.5973,0,U,49400,999,25717,.30603827E-3,.9449E-4,0
KOSEN-1,2021-102H,2026-07-07T01:31:00.190560,15.27132913,.00150823,97.3175,229.8359,133.3577,226.8921,0,U,49402,999,25705,.23303826E-3,.6147E-4,0
GLOBAL-14,2021-106A,2026-07-07T10:24:17.306496,15.51549920,.00162577,42.0026,170.6699,170.8772,189.2370,0,U,49469,999,26127,.28316098E-3,.17016E-3,0
GAOFEN-3 02,2021-109A,2026-07-07T14:02:03.174144,14.42219597,.00015565,98.4093,196.3917,310.0721,50.0332,0,U,49495,999,24325,.14941753E-4,.6E-7,0
GLOBAL-12,2021-115BA,2026-07-07T07:54:22.744224,15.54947504,.00026035,53.1957,307.6011,70.1313,289.9979,0,U,49772,999,25903,.41159956E-3,.27653E-3,0
GLOBAL-13,2021-115BB,2026-07-07T08:21:46.102464,15.46890739,.00015372,53.1980,318.6912,149.5926,210.5172,0,U,49773,999,25888,.29786287E-3,.14819E-3,0
GLOBAL-17,2021-120A,2026-07-07T13:00:38.454336,15.53413015,.00139656,41.9950,287.9070,32.2181,327.9515,0,U,49949,999,25806,.33219435E-3,.21412E-3,0
GLOBAL-16,2021-120B,2026-07-07T14:00:22.825728,15.51213782,.00122536,41.9954,291.7817,21.8667,338.2698,0,U,49950,999,25801,.29996837E-3,.17787E-3,0
XW-3 (CAS-9),2021-131B,2026-07-07T14:27:40.820256,14.41378352,.0004984,98.4982,280.8827,49.7875,310.3749,0,U,50466,999,23805,.19466973E-3,.586E-5,0
ION SCV-004,2022-002K,2026-07-07T05:46:16.967424,15.30655713,.00055429,97.2819,245.5235,284.2215,75.8410,0,U,50993,999,24836,.13360798E-3,.3885E-4,0
ETV-A1,2022-002CE,2026-07-07T14:23:37.133376,15.41122531,.00034323,97.2865,254.8507,263.6097,96.4759,0,U,51060,999,24898,.1858504E-3,.761E-4,0
BRO-5,2022-002CF,2026-07-07T14:44:19.515264,15.48560451,.00046341,97.2983,262.4785,232.5161,127.5669,0,U,51061,999,24941,.39775412E-3,.21138E-3,0
LUDI TANCE 1-01A (L-SAR 01A),2022-007A,2026-07-07T14:50:06.039744,14.88413368,.00016238,97.8102,195.7476,90.2807,269.8595,0,U,51284,999,24151,.59466042E-4,.497E-5,0
LUDI TANCE 1-01B (L-SAR 01B),2022-018A,2026-07-06T10:35:56.438880,14.88422741,.00016072,97.8106,194.5856,91.5780,268.5621,0,U,51822,999,23657,.6822939E-4,.578E-5,0
